C/2011 L6 (Boattini),e,171.4421,214.4210,331.3779,7238,0.0000016,0.99906166,0.0000,01/17.5700/2011,2000,g  9.0,4.0
# From MPC 75714
C/2011 M1 (LINEAR),h,09/06.1753/2011,70.1565,324.7855,119.7849,1.002457,0.906468,2000,12.0,4.0
# From MPC 87913
P/2011 N1 (ASH),e,35.6926,77.6315,330.5866,6.258149,0.0629557,0.54364182,108.6846,02/16.0/2017,2000,g 11.5,4.0
# From MPC 75714
P/2011 NO1 (Elenin),e,15.2502,295.9878,263.6463,5.519663,0.0760038,0.77620567,168.4004,02/16.0/2017,2000,g 15.0,4.0
# From MPC 76569
C/2011 N2 (McNaught),e,33.7242,273.8930,356.9501,1341,0.0000201,0.99809725,0.0000,10/19.3116/2011,2000,g 11.5,4.0
# From MPC 87476
C/2011 O1 (LINEAR),e,76.5720,89.7841,232.3332,696.8410,0.0000536,0.99441845,0.0000,08/17.7278/2012,2000,g  7.0,4.0
# From MPC 78186
P/2011 P1 (McNaught),e,5.6453,4.3018,349.0800,7.490889,0.0480733,0.32399669,115.9322,02/16.0/2017,2000,g  9.0,4.0
# From MPC 84931
C/2011 P2 (PANSTARRS),e,9.0067,203.9850,75.8645,9.711448,0.0325670,0.36928655,76.6075,02/16.0/2017,2000,g  8.5,4.0
# From MPC 79867
C/2011 Q1 (PANSTARRS),e,94.8886,142.2181,135.7967,3787,0.0000042,0.99821333,0.0000,06/29.0893/2011,2000,g  9.5,4.0
# From MPC 79342
C/2011 Q2 (McNaught),e,37.2322,287.1235,34.8252,819.4660,0.0000420,0.99834949,0.0000,01/17.9043/2012,2000,g 10.0,4.0
# From MPC 77806
P/2011 Q3 (McNaught),e,6.0525,32.0346,311.0534,4.969388,0.0889712,0.53163840,180.7933,02/16.0/2017,2000,g 13.5,4.0
# From MPC 79342
C/2011 Q4 (SWAN),e,147.9190,252.0170,1.8730,41.18829,0.0037286,0.97278519,0.0000,09/18.6184/2011,2000,g 12.5,4.0
# From MPC 88325
C/2011 R1 (McNaught),e,116.1612,221.3113,308.8062,10216,0.0000010,0.99979608,0.0000,10/18.5065/2012,2000,g  6.5,4.0
# From MPC 90269
P/2011 R3 (Novichonok-Gerke),e,19.2569,190.3927,223.9961,4.810151,0.0934256,0.26428796,167.1170,02/16.0/2017,2000,g 11.0,4.0
# From MPC 98558
P/2011 S1 (Gibbs),e,2.6826,218.9343,193.4603,8.621184,0.0389362,0.20048084,35.2433,02/16.0/2017,2000,g  8.0,4.0
# From MPC 80897
C/2011 S2 (Kowalski),e,17.5569,288.0572,192.3350,16.44337,0.0147815,0.93177782,28.6788,02/16.0/2017,2000,g 15.5,4.0
# From MPC 78186
P/2011 U1 (PANSTARRS),e,15.2394,134.9812,353.3749,4.053777,0.1207576,0.41721870,205.4354,02/16.0/2017,2000,g 14.5,4.0
# From MPC 93583
P/2011 U2 (Bressi),e,9.7439,264.7752,139.5155,5.162326,0.0840303,0.09036738,163.2435,02/16.0/2017,2000,g 10.0,4.0
# From MPC 78186
C/2011 U3 (PANSTARRS),e,116.7118,228.1785,287.7039,2239,0.0000093,0.99952112,0.0000,06/02.8801/2012,2000,g 14.0,4.0
# From MPC 79022
P/2011 UA134 (Spacewatch-PANSTARRS),e,10.4899,40.6141,32.5774,5.595839,0.0744571,0.63015765,141.5328,02/16.0/2017,2000,g 17.5,4.0
# From MPC 88325
C/2011 UF305 (LINEAR),e,94.0207,297.5388,122.0283,3534,0.0000047,0.99939337,0.0000,07/21.1585/2012,2000,g  9.0,4.0
# From MPC 77406
P/2011 V1 (Boattini),e,7.3688,46.9492,269.2569,3.852527,0.1303423,0.55293145,282.8406,02/16.0/2017,2000,g 15.5,4.0
# From MPC 79022
P/2011 VJ5 (Lemmon),e,3.9754,169.9197,315.2766,3.404285,0.1569152,0.55714583,297.3812,02/16.0/2017,2000,g 17.5,4.0
# From MPC 82718
P/2011 W1 (PANSTARRS),e,3.7173,161.8136,282.8064,4.658144,0.0980358,0.28623712,181.6121,02/16.0/2017,2000,g 11.5,4.0
# From MPC 80897
P/2011 W2 (Rinner),e,13.7580,231.9703,221.2949,3.806156,0.1327316,0.39275188,256.1149,02/16.0/2017,2000,g 13.0,4.0
# From MPC 77807
C/2011 W3 (Lovejoy),e,135.0946,327.7421,54.5938,71.00058,0.0016474,0.99991277,0.0000,12/14.7439/2011,2000,g 14.5,4.0
# From MPC 79342
P/2011 Y2 (Boattini),e,6.3640,309.4841,131.9794,6.239244,0.0632421,0.71058585,113.5117,02/16.0/2017,2000,g 15.0,4.0
# From MPC 79342
C/2011 Y3 (Boattini),e,26.5140,84.8578,340.6522,11.78026,0.0243765,0.70214327,48.9333,02/16.0/2017,2000,g  8.0,4.0
# From MPC 93583
C/2012 A1 (PANSTARRS),h,12/04.4579/2013,120.9293,278.0113,192.0920,1.002272,7.605029,2000,6.0,4.0
# From MPC 91611
C/2012 A2 (LINEAR),e,125.9041,191.4258,101.7156,1252,0.0000223,0.99717618,0.0000,11/06.0411/2012,2000,g  8.5,4.0
# From MPC 80898
P/2012 A3 (SOHO),e,11.4528,176.3983,217.7918,2.573246,0.2387713,0.77557967,81.9910,02/16.0/2017,2000,g 17.0,4.0
# From MPC 94669
P/2012 B1 (PANSTARRS),e,7.6233,36.1526,162.4111,6.512237,0.0593074,0.41207023,77.2503,02/16.0/2017,2000,g  9.0,4.0
# From MPC 82719
C/2012 B3 (La Sagra),e,107.0278,252.9739,50.7821,5036,0.0000028,0.99929632,0.0000,12/05.9451/2011,2000,g 10.0,4.0
# From MPC 83519
C/2012 BJ98 (Lemmon),e,2.6364,124.0132,73.0422,17.23650,0.0137731,0.87481732,22.1583,02/16.0/2017,2000,g 12.5,4.0
# From MPC 89309
C/2012 C1 (McNaught),e,96.2392,300.6252,279.8816,2723,0.0000069,0.99822419,0.0000,02/04.9758/2013,2000,g  7.5,4.0
# From MPC 80898
C/2012 C2 (Bruenjes),h,03/13.1987/2012,162.7827,117.9704,62.5530,1.002840,0.796277,2000,17.0,4.0
# From MPC 78590
P/2012 C3 (PANSTARRS),e,9.0920,135.3677,344.9542,9.748681,0.0323806,0.63011148,359.9758,10/06.0/2011,2000,g 13.0,4.0
# From MPC 84022
C/2012 CH17 (MOSS),e,27.7538,125.8804,137.9228,2559,0.0000076,0.99949650,0.0000,09/28.9562/2012,2000,g 11.0,4.0
# From MPC 84022
C/2012 E1 (Hill),e,122.5757,286.2900,48.7940,1072,0.0000281,0.99299527,0.0000,06/30.7289/2011,2000,g  6.5,4.0
# From MPC 79023
C/2012 E2 (SWAN),p,03/15.0314/2012,144.2218,83.3435,0.006952,7.7078,2000,10.0,4.0
# From MPC 82318
C/2012 E3 (PANSTARRS),e,105.5693,5.4995,103.5028,206.3177,0.0003326,0.98141104,0.0000,05/10.4721/2011,2000,g 10.0,4.0
# From MPC 79868
C/2012 F1 (Gibbs),e,159.5596,130.3482,300.9199,72.38328,0.0016005,0.96457086,2.9214,02/16.0/2017,2000,g 14.0,4.0
# From MPC 84931
P/2012 F2 (PANSTARRS),e,14.7399,227.0893,33.0922,6.322470,0.0619975,0.54281274,87.2651,02/16.0/2017,2000,g 12.0,4.0
# From MPC102950
C/2012 F3 (PANSTARRS),h,04/06.8260/2015,11.3544,164.6110,104.0297,1.002787,3.456754,2000,6.5,4.0
# From MPC 90766
C/2012 F6 (Lemmon),e,82.6199,332.6816,304.8427,410.8276,0.0001184,0.99823329,0.0000,03/24.7297/2013,2000,g 10.0,4.0
# From MPC 79344
P/2012 G1 (PANSTARRS),e,11.6925,282.5440,286.1149,4.172871,0.1156250,0.38072240,359.9500,06/01.0/2012,2000,g 15.0,4.0
# From MPC 80046
C/2012 H2 (McNaught),e,92.7932,184.0615,295.9830,16.10483,0.0152500,0.89287530,26.6984,02/16.0/2017,2000,g 15.5,4.0
# From MPC 89726
C/2012 J1 (Catalina),h,12/06.2461/2012,34.0938,235.1303,147.3565,1.001278,3.160575,2000,8.0,4.0
# From MPC102950
C/2012 K1 (PANSTARRS),h,08/27.8659/2014,142.4017,317.7560,203.1295,1.000488,1.054158,2000,5.6,3.2
# From MPC 80898
P/2012 K3 (Gibbs),e,13.1967,125.8746,172.2911,3.620399,0.1430769,0.42388523,229.3502,02/16.0/2017,2000,g 15.0,4.0
# From MPC 88326
C/2012 K5 (LINEAR),e,92.8181,279.2056,139.3580,685.3522,0.0000549,0.99832888,0.0000,11/28.3315/2012,2000,g 12.0,4.0
# From MPC 94278
C/2012 K6 (McNaught),e,135.2206,206.9023,338.8909,1462,0.0000176,0.99770219,0.0000,05/20.6912/2013,2000,g  8.5,4.0
# From MPC100577
C/2012 K8 (Lemmon),e,106.1186,312.7970,75.8858,12421,0.0000007,0.99947949,0.0000,08/19.4075/2014,2000,g  6.0,4.0
# From MPC 88326
C/2012 L1 (LINEAR),e,87.2369,271.8684,140.2320,602.3322,0.0000667,0.99624214,0.0000,12/24.8058/2012,2000,g 10.5,4.0
# From MPC 88326
C/2012 L2 (LINEAR),e,70.9124,270.3335,205.8730,613.8193,0.0000648,0.99753363,0.0000,05/08.8772/2013,2000,g 10.0,4.0
# From MPC 84023
C/2012 L3 (LINEAR),e,134.1357,53.4295,106.9130,292.8095,0.0001967,0.98961314,0.0000,06/10.7602/2012,2000,g 13.0,4.0
# From MPC102950
C/2012 LP26 (Palomar),h,08/16.4849/2015,25.3765,153.9878,145.1373,1.000363,6.535600,2000,6.5,4.0
# From MPC 88326
P/2012 NJ (La Sagra),e,84.4177,315.7298,338.2768,8.454983,0.0400899,0.84767639,68.5449,02/16.0/2017,2000,g 14.5,4.0
# From MPC 84625
C/2012 OP (Siding Spring),e,114.8340,267.2957,351.3162,691.5936,0.0000542,0.99478524,0.0000,12/03.5934/2012,2000,g 13.5,2.0
# From MPC 81470
P/2012 O1 (McNaught),e,7.4272,92.4120,238.0391,3.531850,0.1484912,0.59721298,249.6446,02/16.0/2017,2000,g 17.5,4.0
# From MPC 80899
P/2012 O2 (McNaught),e,24.4944,120.7388,183.4300,3.617369,0.1432567,0.53298456,244.0571,02/16.0/2017,2000,g 17.0,4.0
# From MPC 82720
P/2012 O3 (McNaught),e,16.5781,336.4067,344.6619,4.580491,0.1005394,0.64542547,165.8086,02/16.0/2017,2000,g 16.5,4.0
# From MPC 90767
C/2012 Q1 (Kowalski),e,45.2311,184.4293,139.0115,25.99780,0.0074353,0.63573505,13.6700,02/16.0/2017,2000,g  4.0,4.0
# From MPC 89726
C/2012 S1 (ISON),h,11/28.4097/2013,62.7673,295.5245,345.6805,1.000258,0.012733,2000,8.5,3.2
# From MPC 82720
P/2012 S2 (La Sagra),e,8.6788,51.2569,312.6620,4.400196,0.1067815,0.69210764,176.1475,02/16.0/2017,2000,g 17.0,4.0
# From MPC 88327
C/2012 S3 (PANSTARRS),e,112.9554,121.2703,183.6565,4213,0.0000036,0.99945237,0.0000,08/30.4029/2013,2000,g 10.0,4.0
# From MPC 88327
C/2012 S4 (PANSTARRS),e,126.5600,173.1157,163.5124,16115,0.0000005,0.99973057,0.0000,06/27.5283/2013,2000,g  8.5,4.0
# From MPC 82720
P/2012 SB6 (Lemmon),e,11.0659,9.1075,12.1367,3.873283,0.1292961,0.39628381,201.7198,02/16.0/2017,2000,g 14.0,4.0
# From MPC 88694
P/2012 T1 (PANSTARRS),e,11.0573,85.7271,299.9541,3.149302,0.1763529,0.23738802,285.9485,02/16.0/2017,2000,g 15.0,4.0
# From MPC 82320
P/2012 T2 (PANSTARRS),e,12.5539,73.7399,310.9995,5.746687,0.0715447,0.16005026,99.6531,02/16.0/2017,2000,g 10.0,4.0
# From MPC 80900
P/2012 T3 (PANSTARRS),e,9.5493,114.3981,195.4488,6.161011,0.0644505,0.61511372,113.3603,02/16.0/2017,2000,g 15.0,4.0
# From MPC 84023
C/2012 T4 (McNaught),e,24.1305,99.4157,219.8044,118.8210,0.0007610,0.98358490,0.0000,10/10.5949/2012,2000,g 13.5,4.0
# From MPC 84023
C/2012 T5 (Bressi),h,02/24.1355/2013,72.2491,230.2738,318.2085,1.000393,0.323540,2000,13.0,4.0
# From MPC 82720
C/2012 T6 (Kowalski),e,33.3241,186.1265,197.9777,14.08265,0.0186500,0.87404377,30.5333,02/16.0/2017,2000,g 15.0,4.0
# From MPC 87914
P/2012 TK8 (Tenagra),e,6.2870,289.2771,126.6612,4.163455,0.1160174,0.26750470,160.4925,02/16.0/2017,2000,g 13.0,4.0
# From MPC 95208
C/2012 U1 (PANSTARRS),e,56.3489,26.9657,70.2032,2769,0.0000068,0.99809699,0.0000,07/05.3232/2014,2000,g  7.5,4.0
# From MPC 82720
P/2012 U2 (PANSTARRS),e,10.7405,185.2387,228.6649,7.161892,0.0514236,0.49856795,79.9435,02/16.0/2017,2000,g 12.5,4.0
